CCSDS_OMM_VERS = 2.0
CREATION_DATE  = 
ORIGINATOR     = 

OBJECT_NAME    = DELTA 2 R/B(1)
OBJECT_ID      = 1990-008B
CENTER_NAME    = EARTH
REF_FRAME      = TEME
TIME_SYSTEM    = UTC
MEAN_ELEMENT_THEORY = SGP/SGP4

EPOCH          = 2026-02-28T13:55:59.408544
MEAN_MOTION    = 15.54561026
ECCENTRICITY   = .00873392
INCLINATION    = 35.6028
RA_OF_ASC_NODE = 234.5751
ARG_OF_PERICENTER = 174.1685
MEAN_ANOMALY   = 186.0085

EPHEMERIS_TYPE = 0
CLASSIFICATION_TYPE = U
NORAD_CAT_ID   = 20453
ELEMENT_SET_NO = 999
REV_AT_EPOCH   = 92471
BSTAR          = .83949751E-3
MEAN_MOTION_DOT = .68399E-3
MEAN_MOTION_DDOT = 0

CCSDS_OMM_VERS = 2.0
CREATION_DATE  = 
ORIGINATOR     = 

OBJECT_NAME    = COSMOS 2058
OBJECT_ID      = 1990-010A
CENTER_NAME    = EARTH
REF_FRAME      = TEME
TIME_SYSTEM    = UTC
MEAN_ELEMENT_THEORY = SGP/SGP4

EPOCH          = 2026-03-01T00:58:36.524064
MEAN_MOTION    = 15.11228432
ECCENTRICITY   = .0009982
INCLINATION    = 82.4662
RA_OF_ASC_NODE = 55.9489
ARG_OF_PERICENTER = 12.1736
MEAN_ANOMALY   = 347.9733

EPHEMERIS_TYPE = 0
CLASSIFICATION_TYPE = U
NORAD_CAT_ID   = 20465
ELEMENT_SET_NO = 999
REV_AT_EPOCH   = 94093
BSTAR          = .26439E-3
MEAN_MOTION_DOT = .4475E-4
MEAN_MOTION_DDOT = 0

CCSDS_OMM_VERS = 2.0
CREATION_DATE  = 
ORIGINATOR     = 

OBJECT_NAME    = SL-14 R/B
OBJECT_ID      = 1990-010B
CENTER_NAME    = EARTH
REF_FRAME      = TEME
TIME_SYSTEM    = UTC
MEAN_ELEMENT_THEORY = SGP/SGP4

EPOCH          = 2026-03-01T01:17:21.019200
MEAN_MOTION    = 14.83560199
ECCENTRICITY   = .0019097
INCLINATION    = 82.4994
RA_OF_ASC_NODE = 275.5028
ARG_OF_PERICENTER = 332.4095
MEAN_ANOMALY   = 27.6105

EPHEMERIS_TYPE = 0
CLASSIFICATION_TYPE = U
NORAD_CAT_ID   = 20466
ELEMENT_SET_NO = 999
REV_AT_EPOCH   = 92720
BSTAR          = .51302E-4
MEAN_MOTION_DOT = .447E-5
MEAN_MOTION_DDOT = 0

CCSDS_OMM_VERS = 2.0
CREATION_DATE  = 
ORIGINATOR     = 

OBJECT_NAME    = SL-14 R/B
OBJECT_ID      = 1990-018B
CENTER_NAME    = EARTH
REF_FRAME      = TEME
TIME_SYSTEM    = UTC
MEAN_ELEMENT_THEORY = SGP/SGP4

EPOCH          = 2026-02-28T23:53:51.018432
MEAN_MOTION    = 14.82133420
ECCENTRICITY   = .0017535
INCLINATION    = 82.5189
RA_OF_ASC_NODE = 231.2166
ARG_OF_PERICENTER = 118.3932
MEAN_ANOMALY   = 241.9053

EPHEMERIS_TYPE = 0
CLASSIFICATION_TYPE = U
NORAD_CAT_ID   = 20511
ELEMENT_SET_NO = 999
REV_AT_EPOCH   = 92129
BSTAR          = .69613E-4
MEAN_MOTION_DOT = .579E-5
MEAN_MOTION_DDOT = 0

CCSDS_OMM_VERS = 2.0
CREATION_DATE  = 
ORIGINATOR     = 

OBJECT_NAME    = HST
OBJECT_ID      = 1990-037B
CENTER_NAME    = EARTH
REF_FRAME      = TEME
TIME_SYSTEM    = UTC
MEAN_ELEMENT_THEORY = SGP/SGP4

EPOCH          = 2026-03-01T03:12:21.328416
MEAN_MOTION    = 15.29323597
ECCENTRICITY   = .0001563
INCLINATION    = 28.4699
RA_OF_ASC_NODE = 98.3609
ARG_OF_PERICENTER = 38.7436
MEAN_ANOMALY   = 321.3272

EPHEMERIS_TYPE = 0
CLASSIFICATION_TYPE = U
NORAD_CAT_ID   = 20580
ELEMENT_SET_NO = 999
REV_AT_EPOCH   = 77200
BSTAR          = .27732E-3
MEAN_MOTION_DOT = .835E-4
MEAN_MOTION_DDOT = 0

CCSDS_OMM_VERS = 2.0
CREATION_DATE  = 
ORIGINATOR     = 

OBJECT_NAME    = SL-16 R/B
OBJECT_ID      = 1990-046B
CENTER_NAME    = EARTH
REF_FRAME      = TEME
TIME_SYSTEM    = UTC
MEAN_ELEMENT_THEORY = SGP/SGP4

EPOCH          = 2026-03-01T03:26:37.555872
MEAN_MOTION    = 14.15015124
ECCENTRICITY   = .0016043
INCLINATION    = 71.0007
RA_OF_ASC_NODE = 315.8630
ARG_OF_PERICENTER = 311.1558
MEAN_ANOMALY   = 48.8180

EPHEMERIS_TYPE = 0
CLASSIFICATION_TYPE = U
NORAD_CAT_ID   = 20625
ELEMENT_SET_NO = 999
REV_AT_EPOCH   = 84718
BSTAR          = -.43119E-4
MEAN_MOTION_DOT = -.131E-5
MEAN_MOTION_DDOT = 0

CCSDS_OMM_VERS = 2.0
CREATION_DATE  = 
ORIGINATOR     = 

OBJECT_NAME    = COSMOS 2084
OBJECT_ID      = 1990-055A
CENTER_NAME    = EARTH
REF_FRAME      = TEME
TIME_SYSTEM    = UTC
MEAN_ELEMENT_THEORY = SGP/SGP4

EPOCH          = 2026-03-01T03:42:13.223808
MEAN_MOTION    = 15.05586713
ECCENTRICITY   = .0018315
INCLINATION    = 62.7919
RA_OF_ASC_NODE = 4.6861
ARG_OF_PERICENTER = 187.9905
MEAN_ANOMALY   = 172.0907

EPHEMERIS_TYPE = 0
CLASSIFICATION_TYPE = U
NORAD_CAT_ID   = 20663
ELEMENT_SET_NO = 999
REV_AT_EPOCH   = 93503
BSTAR          = .2318E-3
MEAN_MOTION_DOT = .3167E-4
MEAN_MOTION_DDOT = 0

CCSDS_OMM_VERS = 2.0
CREATION_DATE  = 
ORIGINATOR     = 

OBJECT_NAME    = SL-6 R/B(2)
OBJECT_ID      = 1990-055D
CENTER_NAME    = EARTH
REF_FRAME      = TEME
TIME_SYSTEM    = UTC
MEAN_ELEMENT_THEORY = SGP/SGP4

EPOCH          = 2026-03-01T01:24:41.785344
MEAN_MOTION    = 15.03546168
ECCENTRICITY   = .0023403
INCLINATION    = 62.7824
RA_OF_ASC_NODE = 283.2018
ARG_OF_PERICENTER = 344.8533
MEAN_ANOMALY   = 15.1862

EPHEMERIS_TYPE = 0
CLASSIFICATION_TYPE = U
NORAD_CAT_ID   = 20666
ELEMENT_SET_NO = 999
REV_AT_EPOCH   = 93689
BSTAR          = .16875E-3
MEAN_MOTION_DOT = .2126E-4
MEAN_MOTION_DDOT = 0

CCSDS_OMM_VERS = 2.0
CREATION_DATE  = 
ORIGINATOR     = 

OBJECT_NAME    = SL-8 R/B
OBJECT_ID      = 1990-078B
CENTER_NAME    = EARTH
REF_FRAME      = TEME
TIME_SYSTEM    = UTC
MEAN_ELEMENT_THEORY = SGP/SGP4

EPOCH          = 2026-03-01T00:58:40.836288
MEAN_MOTION    = 14.88727688
ECCENTRICITY   = .0364292
INCLINATION    = 82.8997
RA_OF_ASC_NODE = 259.0890
ARG_OF_PERICENTER = 43.0325
MEAN_ANOMALY   = 319.8770

EPHEMERIS_TYPE = 0
CLASSIFICATION_TYPE = U
NORAD_CAT_ID   = 20775
ELEMENT_SET_NO = 999
REV_AT_EPOCH   = 80801
BSTAR          = .47647E-3
MEAN_MOTION_DOT = .16227E-3
MEAN_MOTION_DDOT = 0

CCSDS_OMM_VERS = 2.0
CREATION_DATE  = 
ORIGINATOR     = 

OBJECT_NAME    = SL-8 R/B
OBJECT_ID      = 1991-006B
CENTER_NAME    = EARTH
REF_FRAME      = TEME
TIME_SYSTEM    = UTC
MEAN_ELEMENT_THEORY = SGP/SGP4

EPOCH          = 2026-02-28T20:18:55.688832
MEAN_MOTION    = 13.77493096
ECCENTRICITY   = .00235169
INCLINATION    = 82.9462
RA_OF_ASC_NODE = 176.6196
ARG_OF_PERICENTER = 62.1478
MEAN_ANOMALY   = 54.3828

EPHEMERIS_TYPE = 0
CLASSIFICATION_TYPE = U
NORAD_CAT_ID   = 21088
ELEMENT_SET_NO = 999
REV_AT_EPOCH   = 76285
BSTAR          = .23689187E-4
MEAN_MOTION_DOT = .39E-6
MEAN_MOTION_DDOT = 0

CCSDS_OMM_VERS = 2.0
CREATION_DATE  = 
ORIGINATOR     = 

OBJECT_NAME    = OKEAN-3
OBJECT_ID      = 1991-039A
CENTER_NAME    = EARTH
REF_FRAME      = TEME
TIME_SYSTEM    = UTC
MEAN_ELEMENT_THEORY = SGP/SGP4

EPOCH          = 2026-03-01T04:01:01.409088
MEAN_MOTION    = 15.04732376
ECCENTRICITY   = .0014485
INCLINATION    = 82.5201
RA_OF_ASC_NODE = 345.0975
ARG_OF_PERICENTER = 8.1165
MEAN_ANOMALY   = 352.0293

EPHEMERIS_TYPE = 0
CLASSIFICATION_TYPE = U
NORAD_CAT_ID   = 21397
ELEMENT_SET_NO = 999
REV_AT_EPOCH   = 86375
BSTAR          = .24643E-3
MEAN_MOTION_DOT = .3505E-4
MEAN_MOTION_DDOT = 0

CCSDS_OMM_VERS = 2.0
CREATION_DATE  = 
ORIGINATOR     = 

OBJECT_NAME    = COSMOS 2151
OBJECT_ID      = 1991-042A
CENTER_NAME    = EARTH
REF_FRAME      = TEME
TIME_SYSTEM    = UTC
MEAN_ELEMENT_THEORY = SGP/SGP4

EPOCH          = 2026-03-01T03:29:01.181184
MEAN_MOTION    = 15.00065094
ECCENTRICITY   = .0014149
INCLINATION    = 82.4933
RA_OF_ASC_NODE = 91.9205
ARG_OF_PERICENTER = 89.1530
MEAN_ANOMALY   = 271.1316

EPHEMERIS_TYPE = 0
CLASSIFICATION_TYPE = U
NORAD_CAT_ID   = 21422
ELEMENT_SET_NO = 999
REV_AT_EPOCH   = 86191
BSTAR          = .14201E-3
MEAN_MOTION_DOT = .1799E-4
MEAN_MOTION_DDOT = 0

