DELTA 2 R/B(1)          
1 20453U 90008B   26059.58054871  .00068399  00000+0  83950-3 0  9993
2 20453  35.6028 234.5751 0087339 174.1685 186.0085 15.54561026924715
COSMOS 2058             
1 20465U 90010A   26060.04070051  .00004475  00000+0  26439-3 0  9994
2 20465  82.4662  55.9489 0009982  12.1736 347.9733 15.11228432940935
SL-14 R/B               
1 20466U 90010B   26060.05371550  .00000447  00000+0  51302-4 0  9997
2 20466  82.4994 275.5028 0019097 332.4095  27.6105 14.83560199927204
SL-14 R/B               
1 20511U 90018B   26059.99572938  .00000579  00000+0  69613-4 0  9990
2 20511  82.5189 231.2166 0017535 118.3932 241.9053 14.82133420921298
HST                     
1 20580U 90037B   26060.13358019  .00008350  00000+0  27732-3 0  9997
2 20580  28.4699  98.3609 0001563  38.7436 321.3272 15.29323597772008
SL-16 R/B               
1 20625U 90046B   26060.14349023 -.00000131  00000+0 -43119-4 0  9992
2 20625  71.0007 315.8630 0016043 311.1558  48.8180 14.15015124847187
COSMOS 2084             
1 20663U 90055A   26060.15431972  .00003167  00000+0  23180-3 0  9995
2 20663  62.7919   4.6861 0018315 187.9905 172.0907 15.05586713935032
SL-6 R/B(2)             
1 20666U 90055D   26060.05881696  .00002126  00000+0  16875-3 0  9996
2 20666  62.7824 283.2018 0023403 344.8533  15.1862 15.03546168936894
SL-8 R/B                
1 20775U 90078B   26060.04075042  .00016227  00000+0  47647-3 0  9999
2 20775  82.8997 259.0890 0364292  43.0325 319.8770 14.88727688808013
SL-8 R/B                
1 21088U 91006B   26059.84647788  .00000039  00000+0  23689-4 0  9992
2 21088  82.9462 176.6196 0023516  62.1478  54.3828 13.77493096762850
OKEAN-3                 
1 21397U 91039A   26060.16737742  .00003505  00000+0  24643-3 0  9999
2 21397  82.5201 345.0975 0014485   8.1165 352.0293 15.04732376863759
COSMOS 2151             
1 21422U 91042A   26060.14515256  .00001799  00000+0  14201-3 0  9996
2 21422  82.4933  91.9205 0014149  89.1530 271.1316 15.00065094861919
